     3.02           N: GNSS NAV DATA    M: Mixed            RINEX VERSION / TYPE
CONVBIN 2.4.2                           20230201 184650 UTC PGM / RUN BY / DATE 
log: /home/luca/Nextcloud/uni/GPSDataLoggerParser/acquisizioCOMMENT             
format: u-blox                                              COMMENT             
GPSA   1.7695E-08 -7.4506E-09 -5.9605E-08  1.1921E-07       IONOSPHERIC CORR    
GPSB   1.2902E+05 -1.1469E+05  6.5536E+04 -3.2768E+05       IONOSPHERIC CORR    
GAL    0.0000E+00  0.0000E+00  0.0000E+00  0.0000E+00       IONOSPHERIC CORR    
QZSA   0.0000E+00  0.0000E+00  0.0000E+00  0.0000E+00       IONOSPHERIC CORR    
QZSB   0.0000E+00  0.0000E+00  0.0000E+00  0.0000E+00       IONOSPHERIC CORR    
GPUT -2.7939677238E-09-8.881784197E-15 503808 2247          TIME SYSTEM CORR    
GAUT  0.0000000000E+00 0.000000000E+00      0    0          TIME SYSTEM CORR    
QZUT  0.0000000000E+00 0.000000000E+00      0    0          TIME SYSTEM CORR    
BDUT  0.0000000000E+00 0.000000000E+00      0    0          TIME SYSTEM CORR    
    18                                                      LEAP SECONDS        
                                                            END OF HEADER       
S23 2023  2  1 17 20 32  .000000000000E+00  .000000000000E+00  .321633000000E+06
      .359446000000E+05  .000000000000E+00  .000000000000E+00  .100000000000E+01
      .220441400000E+05  .000000000000E+00  .000000000000E+00  .327670000000E+05
      .000000000000E+00  .000000000000E+00  .000000000000E+00  .000000000000E+00
R 4 2023  2  1 17 15  0  .174200162292E-03  .181898940355E-11  .321660000000E+06
     -.188705126953E+04  .645551681519E-01  .186264514923E-08  .000000000000E+00
      .238664809570E+05 -.121948528290E+01  .372529029846E-08  .600000000000E+01
      .885545947266E+04  .330981349945E+01  .186264514923E-08  .000000000000E+00
E24 2023  2  1 17 10  0 -.109047582373E-02 -.210178541238E-10  .000000000000E+00
      .230000000000E+02  .660312500000E+02  .292047879252E-08  .251733647171E+01
      .294856727123E-05  .773334642872E-03  .951811671257E-05  .544062840462E+04
      .321000000000E+06 -.409781932831E-07  .222940349583E+01 -.763684511185E-07
      .968085995068E+00  .138187500000E+03  .775081316928E+00 -.528164857329E-08
     -.595381942905E-09  .100000000000E+01  .224700000000E+04  .000000000000E+00
      .327670000000E+05  .000000000000E+00 -.279396772385E-08 -.349245965481E-08
      .321679000000E+06  .000000000000E+00
S36 2023  2  1 17 21 52  .000000000000E+00  .000000000000E+00  .321720000000E+06
      .420036880000E+05  .000000000000E+00  .000000000000E+00  .100000000000E+01
      .367484696000E+04  .000000000000E+00  .000000000000E+00  .327670000000E+05
      .000000000000E+00  .000000000000E+00  .000000000000E+00  .000000000000E+00
R10 2023  2  1 17 15  0 -.901557505131E-04  .000000000000E+00  .321750000000E+06
      .188808271484E+05  .219821453094E+01  .000000000000E+00  .000000000000E+00
     -.852625488281E+03  .833808898926E+00  .279396772385E-08 -.700000000000E+01
      .171574458008E+05 -.236802577972E+01  .000000000000E+00  .000000000000E+00
S23 2023  2  1 17 23 12  .000000000000E+00  .000000000000E+00  .321792000000E+06
      .359446000000E+05  .000000000000E+00  .000000000000E+00  .100000000000E+01
      .220441400000E+05  .000000000000E+00  .000000000000E+00  .327670000000E+05
      .000000000000E+00  .000000000000E+00  .000000000000E+00  .000000000000E+00
S36 2023  2  1 17 24 32  .000000000000E+00  .000000000000E+00  .321879000000E+06
      .420036880000E+05  .000000000000E+00  .000000000000E+00  .100000000000E+01
      .367484696000E+04  .000000000000E+00  .000000000000E+00  .327670000000E+05
      .000000000000E+00  .000000000000E+00  .000000000000E+00  .000000000000E+00
S23 2023  2  1 17 25 36  .000000000000E+00  .000000000000E+00  .321950000000E+06
      .359446000000E+05  .000000000000E+00  .000000000000E+00  .100000000000E+01
      .220441400000E+05  .000000000000E+00  .000000000000E+00  .327670000000E+05
      .000000000000E+00  .000000000000E+00  .000000000000E+00  .000000000000E+00
S36 2023  2  1 17 27 12  .000000000000E+00  .000000000000E+00  .322039000000E+06
      .420036880000E+05  .000000000000E+00  .000000000000E+00  .100000000000E+01
      .367484696000E+04  .000000000000E+00  .000000000000E+00  .327670000000E+05
      .000000000000E+00  .000000000000E+00  .000000000000E+00  .000000000000E+00
S23 2023  2  1 17 28 16  .000000000000E+00  .000000000000E+00  .322109000000E+06
      .359446000000E+05  .000000000000E+00  .000000000000E+00  .100000000000E+01
      .220441400000E+05  .000000000000E+00  .000000000000E+00  .327670000000E+05
      .000000000000E+00  .000000000000E+00  .000000000000E+00  .000000000000E+00
S36 2023  2  1 17 29 52  .000000000000E+00  .000000000000E+00  .322199000000E+06
      .420036880000E+05  .000000000000E+00  .000000000000E+00  .100000000000E+01
      .367484696000E+04  .000000000000E+00  .000000000000E+00  .327670000000E+05
      .000000000000E+00  .000000000000E+00  .000000000000E+00  .000000000000E+00
G26 2023  2  1 18  0  0  .241075176746E-03  .454747350886E-12  .000000000000E+00
      .220000000000E+02  .255000000000E+02  .511807033103E-08  .183498620368E+01
      .146031379700E-05  .782553013414E-02  .942312180996E-05  .515363478088E+04
      .324000000000E+06 -.167638063431E-06  .222169927476E+01  .102445483208E-06
      .934734333105E+00  .186437500000E+03  .444142176099E+00 -.816998316974E-08
     -.567166481903E-09  .100000000000E+01  .224700000000E+04  .000000000000E+00
      .240000000000E+01  .000000000000E+00  .698491930962E-08  .220000000000E+02
      .322206000000E+06  .400000000000E+01
R10 2023  2  1 17 45  0 -.901557505131E-04  .000000000000E+00  .322200000000E+06
      .223853066406E+05  .165414428711E+01  .000000000000E+00  .000000000000E+00
      .179833984375E+03  .331462860107E+00  .279396772385E-08 -.700000000000E+01
      .122883217773E+05 -.300695610046E+01  .000000000000E+00  .000000000000E+00
R 9 2023  2  1 17 45  0  .101778656244E-03  .181898940355E-11  .322200000000E+06
      .239746357422E+05 -.369760513306E+00  .000000000000E+00  .000000000000E+00
      .805930664062E+04 -.202336311340E+00  .186264514923E-08 -.200000000000E+01
     -.297750976562E+04 -.351717567444E+01  .186264514923E-08  .000000000000E+00
R21 2023  2  1 17 45  0 -.370007939637E-03 -.272848410532E-11  .322200000000E+06
      .200561655273E+05 -.896197319031E+00 -.931322574615E-09  .000000000000E+00
     -.139512104492E+05  .517834663391E+00  .931322574615E-09  .400000000000E+01
      .737484765625E+04  .341700839996E+01 -.931322574615E-09  .000000000000E+00
E25 2023  2  1 17 10  0 -.598456943408E-03 -.795807864051E-12  .000000000000E+00
      .230000000000E+02  .589687500000E+02  .298083844960E-08  .234802414538E+01
      .268779695034E-05  .238977139816E-03  .998564064503E-05  .544061536980E+04
      .321000000000E+06 -.372529029846E-07  .222559480617E+01 -.279396772385E-07
      .970210080436E+00  .129812500000E+03  .128301561144E+00 -.525021869268E-08
     -.589667419158E-09  .100000000000E+01  .224700000000E+04  .000000000000E+00
      .327670000000E+05  .000000000000E+00  .419095158577E-08  .442378222942E-08
      .322249000000E+06  .000000000000E+00
S23 2023  2  1 17 30 56  .000000000000E+00  .000000000000E+00  .322266000000E+06
      .359446000000E+05  .000000000000E+00  .000000000000E+00  .100000000000E+01
      .220441400000E+05  .000000000000E+00  .000000000000E+00  .327670000000E+05
      .000000000000E+00  .000000000000E+00  .000000000000E+00  .000000000000E+00
E24 2023  2  1 17 20  0 -.109048845479E-02 -.210178541238E-10  .000000000000E+00
      .240000000000E+02  .645937500000E+02  .292976489361E-08  .259172333982E+01
      .288896262646E-05  .773514038883E-03  .952184200287E-05  .544062804985E+04
      .321600000000E+06 -.335276126862E-07  .222940031399E+01 -.856816768646E-07
      .968085589839E+00  .138125000000E+03  .775078948464E+00 -.528807741251E-08
     -.590381734626E-09  .100000000000E+01  .224700000000E+04  .000000000000E+00
      .327670000000E+05  .000000000000E+00 -.279396772385E-08 -.349245965481E-08
      .322279000000E+06  .000000000000E+00
E25 2023  2  1 17 20  0 -.598457409069E-03 -.795807864051E-12  .000000000000E+00
      .240000000000E+02  .588437500000E+02  .297369529492E-08  .242225670929E+01
      .268220901489E-05  .238767825067E-03  .991486012936E-05  .544061579132E+04
      .321600000000E+06 -.353902578354E-07  .222559164919E+01 -.279396772385E-07
      .970209733724E+00  .131531250000E+03  .128454354159E+00 -.524879006175E-08
     -.589667419158E-09  .100000000000E+01  .224700000000E+04  .000000000000E+00
      .327670000000E+05  .000000000000E+00  .419095158577E-08  .442378222942E-08
      .322279000000E+06  .000000000000E+00
S36 2023  2  1 17 32 32  .000000000000E+00  .000000000000E+00  .322359000000E+06
      .420036880000E+05  .000000000000E+00  .000000000000E+00  .100000000000E+01
      .367484696000E+04  .000000000000E+00  .000000000000E+00  .327670000000E+05
      .000000000000E+00  .000000000000E+00  .000000000000E+00  .000000000000E+00
S23 2023  2  1 17 33 36  .000000000000E+00  .000000000000E+00  .322422000000E+06
      .359446000000E+05  .000000000000E+00  .000000000000E+00  .100000000000E+01
      .220441400000E+05  .000000000000E+00  .000000000000E+00  .327670000000E+05
      .000000000000E+00  .000000000000E+00  .000000000000E+00  .000000000000E+00
S36 2023  2  1 17 35 12  .000000000000E+00  .000000000000E+00  .322515000000E+06
      .420036880000E+05  .000000000000E+00  .000000000000E+00  .100000000000E+01
      .367484696000E+04  .000000000000E+00  .000000000000E+00  .327670000000E+05
      .000000000000E+00  .000000000000E+00  .000000000000E+00  .000000000000E+00
